OBJECT_NAME,OBJECT_ID,EPOCH,MEAN_MOTION,ECCENTRICITY,INCLINATION,RA_OF_ASC_NODE,ARG_OF_PERICENTER,MEAN_ANOMALY,EPHEMERIS_TYPE,CLASSIFICATION_TYPE,NORAD_CAT_ID,ELEMENT_SET_NO,REV_AT_EPOCH,BSTAR,MEAN_MOTION_DOT,MEAN_MOTION_DDOT
KUIPER-00619,2026-151Q,2026-07-18T13:18:10.910016,15.38593794,.00021422,51.8809,163.9998,59.8022,300.3177,0,U,69777,999,253,.33569022E-3,.12621E-3,0
KUIPER-00621,2026-151R,2026-07-18T14:55:10.943616,15.38363011,.00025598,51.8803,163.7041,127.4874,232.6347,0,U,69778,999,254,.65033504E-3,.24675E-3,0
KUIPER-00622,2026-151S,2026-07-18T10:34:28.737696,15.36968365,.00067524,51.8742,164.7371,157.7973,202.3307,0,U,69779,999,251,.23230879E-3,.8153E-4,0
KUIPER-00623,2026-151T,2026-07-17T06:22:24.548160,15.37672053,.0006129,51.8777,170.3650,146.6000,213.5375,0,U,69780,999,233,.3498E-2,.133416E-2,0
KUIPER-00626,2026-151U,2026-07-18T09:19:23.049408,15.34990807,.00076691,51.8720,165.1335,171.5528,188.5588,0,U,69781,999,250,-.27074801E-3,-.9712E-4,0
KUIPER-00627,2026-151V,2026-07-18T09:22:25.045824,15.34693182,.00108229,51.8693,165.1438,175.1356,184.9736,0,U,69782,999,250,-.13893961E-2,-.47612E-3,0
KUIPER-00629,2026-151W,2026-07-18T14:00:01.999872,15.30004700,.00064744,51.8781,164.1633,166.1752,220.7225,0,U,69783,999,286,-.96116955E-3,-.28595E-3,0
KUIPER-00631,2026-151X,2026-07-18T14:00:01.999872,15.31450904,.00079596,51.8746,164.1506,171.5669,213.6550,0,U,69784,999,130,-.29320617E-1,-.836253E-2,0
KUIPER-00634,2026-151Y,2026-07-18T08:49:41.158272,15.37786969,.00035853,51.8780,165.0027,145.2713,214.8508,0,U,69785,999,250,.24127746E-3,.8716E-4,0
KUIPER-00639,2026-151Z,2026-07-18T12:22:36.794496,15.35139815,.00100795,51.8694,164.4837,174.1474,185.9631,0,U,69786,999,252,.67780553E-3,.23193E-3,0
KUIPER-00641,2026-151AA,2026-07-18T14:00:01.999872,15.34543691,.00109247,51.8677,164.2334,172.6311,164.0699,0,U,69787,999,317,-.10259791E-2,-.35151E-3,0
KUIPER-00644,2026-151AB,2026-07-18T12:25:41.845152,15.31410604,.0008215,51.8744,164.4808,165.5057,194.6164,0,U,69788,999,252,.5722783E-3,.17304E-3,0
KUIPER-00646,2026-151AC,2026-07-18T12:21:04.641120,15.35875674,.00091416,51.8704,164.4782,177.9380,182.1646,0,U,69789,999,252,.68987316E-3,.24178E-3,0
KUIPER-00647,2026-151AD,2026-07-18T09:20:35.448288,15.35105780,.0010638,51.8665,165.1337,176.4406,183.6657,0,U,69790,999,250,-.34048503E-4,-.1567E-4,0
KUIPER-00662,2026-151AE,2026-07-18T10:41:26.743488,15.36530382,.00082585,51.8745,164.7687,170.6139,189.5003,0,U,69791,999,251,.2315613E-3,.801E-4,0
LINK,2026-152A,2026-07-18T13:22:51.215808,15.67914384,.00249585,20.5910,301.5041,41.6624,318.5720,0,U,69792,999,238,.77285511E-3,.92753E-3,0
ISS OBJECT YJ,1998-067YJ,2026-07-18T09:39:50.209344,15.50153314,.00077263,51.6313,145.5127,322.8487,37.1967,0,U,69794,999,249,.33749314E-3,.18972E-3,0
ISS OBJECT YK,1998-067YK,2026-07-18T03:21:06.249024,15.50914604,.00066267,51.6313,146.7573,329.4507,30.6095,0,U,69795,999,245,.61066647E-3,.35727E-3,0
ISS OBJECT YL,1998-067YL,2026-07-18T01:50:23.032608,15.50628198,.00087195,51.6315,147.0863,322.6666,37.3717,0,U,69796,999,243,.49057354E-3,.28307E-3,0
ISS OBJECT YM,1998-067YM,2026-07-18T03:22:42.429504,15.50677012,.00095277,51.6314,146.7645,314.1271,45.8934,0,U,69797,999,243,.50205193E-3,.29042E-3,0
ISS OBJECT YN,1998-067YN,2026-07-18T01:51:30.396960,15.50414888,.00091903,51.6317,147.0913,325.6783,34.3611,0,U,69798,999,244,.32670208E-3,.18532E-3,0
PROVES-ELECTRA,1998-067YP,2026-07-17T04:10:34.012992,15.50615173,.00097002,51.6315,151.5587,310.8273,49.1874,0,U,69799,999,229,.41820358E-3,.24046E-3,0
QIANFAN-201,2026-153A,2026-07-17T20:09:13.631040,14.25481230,.00061997,88.9972,358.7543,157.8285,202.3177,0,U,69800,999,192,.17182966E-4,.55E-6,0
QIANFAN-202,2026-153B,2026-07-18T13:37:05.055168,14.18843773,.00070534,88.9926,358.6652,164.2094,195.9317,0,U,69801,999,202,.75171752E-4,.171E-5,0
QIANFAN-203,2026-153C,2026-07-18T04:58:08.788224,14.22391127,.00076481,88.9925,358.7043,174.1189,186.0094,0,U,69802,999,197,.40676543E-4,.105E-5,0
QIANFAN-204,2026-153D,2026-07-18T15:12:10.586304,14.20114535,.00080171,88.9927,358.6564,167.4814,192.6577,0,U,69803,999,203,.51574704E-4,.124E-5,0
QIANFAN-205,2026-153E,2026-07-18T13:26:46.878720,14.22264783,.00079061,88.9925,358.6638,171.6072,188.5253,0,U,69804,999,202,.33456171E-4,.89E-6,0
QIANFAN-206,2026-153F,2026-07-18T14:53:05.883936,14.24034612,.00083975,88.9926,358.6543,172.0481,188.0847,0,U,69805,999,203,.11550601E-4,.41E-6,0
QIANFAN-207,2026-153G,2026-07-18T14:50:34.099008,14.24251083,.00078355,88.9926,358.6541,172.1243,188.0074,0,U,69806,999,203,.5318778E-4,.137E-5,0
